#cP2020  6 24  0  0  0.00000000       1 ORBIT IGS14 FIT  TST
## 2111 432000.00000000   900.00000000 59024 0.0000000000000
+    1  000  0.000000000000000  0  0  0  0  0  0  0  0  0  0
++         0  0  0  0  0  0  0  0  0  0  0  0  0  0  0  0  0
%c G  cc GPS ccc cccc cccc cccc cccc ccccc 4444444444444444444444444444444444444444444444444444444444444444444444444444444444444444444444444ccccc ccccc ccccc
%c cc cc ccc ccc cccc cccc cccc cccc ccccc ccccc ccccc ccccc
%f  1.2500000  1.025000000  0.00000000000  0.000000000000000
%f  0.0000000  0.000000000  0.00000000000  0.000000000000000
%i    0    0    0    0      0      0      0      0         0
%i    0    0    0    0      0      0      0      0         0
*  2020  6 24  0  0  0.00000000
PG01      1.000000      2.000000      3.000000 999999.999999
EOF
